{"type": "FeatureCollection", "features": [ {"type": "Feature", "properties": {"norad_id": 36734, "name": "FENGYUN 1C DEB", "group": "fengyun-1c-debris", "lat": -47.83078363349651, "lon": 38.4767330548482, "alt_km": 807.1454315451301, "timestamp": "2025-12-07T14:37:05.493323+00:00", "meta": {"OBJECT_NAME": "FENGYUN 1C DEB", "OBJECT_ID": "1999-025EBG", "EPOCH": "2025-12-06T01:47:35.625696", "MEAN_MOTION": 14.25778365, "ECCENTRICITY": 0.00357798, "INCLINATION": 99.0548, "RA_OF_ASC_NODE": 26.7523, "ARG_OF_PERICENTER": 237.8747, "MEAN_ANOMALY": 121.8957, "EPHEMERIS_TYPE": 0, "CLASSIFICATION_TYPE": "U", "NORAD_CAT_ID": 36734, "ELEMENT_SET_NO": 999, "REV_AT_EPOCH": 82639, "BSTAR": 0.0027996268, "MEAN_MOTION_DOT": 6.655e-05, "MEAN_MOTION_DDOT": 0}, "tle": {"line1": "1 36734U 99025EBG 25340.07471789  .00006655  00000+0  27996-2 0  9991", "line2": "2 36734  99.0548  26.7523 0035779 237.8747 121.8957 14.25778365826393"}}, "geometry": {"type": "Point", "coordinates": [38.4767330548482, -47.83078363349651]}}, {"type": "Feature", "properties": {"norad_id": 36736, "name": "FENGYUN 1C DEB", "group": "fengyun-1c-debris", "lat": 55.53358317257087, "lon": 41.99679907345771, "alt_km": 807.6203361920188, "timestamp": "2025-12-07T14:37:05.493334+00:00", "meta": {"OBJECT_NAME": "FENGYUN 1C DEB", "OBJECT_ID": "1999-025EBJ", "EPOCH": "2025-12-06T11:23:48.691968", "MEAN_MOTION": 14.25393526, "ECCENTRICITY": 0.00614224, "INCLINATION": 98.8068, "RA_OF_ASC_NODE": 53.9112, "ARG_OF_PERICENTER": 157.8344, "MEAN_ANOMALY": 202.5511, "EPHEMERIS_TYPE": 0, "CLASSIFICATION_TYPE": "U", "NORAD_CAT_ID": 36736, "ELEMENT_SET_NO": 999, "REV_AT_EPOCH": 88526, "BSTAR": 0.0031425754, "MEAN_MOTION_DOT": 7.522e-05, "MEAN_MOTION_DDOT": 0}, "tle": {"line1": "1 36736U 99025EBJ 25340.47486912  .00007522  00000+0  31426-2 0  9998", "line2": "2 36736  98.8068  53.9112 0061422 157.8344 202.5511 14.25393526885269"}}, "geometry": {"type": "Point", "coordinates": [41.99679907345771, 55.53358317257087]}}, {"type": "Feature", "properties": {"norad_id": 36743, "name": "FENGYUN 1C DEB", "group": "fengyun-1c-debris", "lat": 20.229071914215705, "lon": 26.695320478710954, "alt_km": 760.8677315862915, "timestamp": "2025-12-07T14:37:05.493343+00:00", "meta": {"OBJECT_NAME": "FENGYUN 1C DEB", "OBJECT_ID": "1999-025EBR", "EPOCH": "2025-12-04T14:15:58.905792", "MEAN_MOTION": 14.29017755, "ECCENTRICITY": 0.0047823, "INCLINATION": 98.656, "RA_OF_ASC_NODE": 26.9209, "ARG_OF_PERICENTER": 37.2124, "MEAN_ANOMALY": 323.2356, "EPHEMERIS_TYPE": 0, "CLASSIFICATION_TYPE": "U", "NORAD_CAT_ID": 36743, "ELEMENT_SET_NO": 999, "REV_AT_EPOCH": 60621, "BSTAR": 0.0026931, "MEAN_MOTION_DOT": 6.861e-05, "MEAN_MOTION_DDOT": 0}, "tle": {"line1": "1 36743U 99025EBR 25338.59443178  .00006861  00000+0  26931-2 0  9993", "line2": "2 36743  98.6560  26.9209 0047823  37.2124 323.2356 14.29017755606210"}}, "geometry": {"type": "Point", "coordinates": [26.695320478710954, 20.229071914215705]}}, {"type": "Feature", "properties": {"norad_id": 36986, "name": "FENGYUN 1C DEB", "group": "fengyun-1c-debris", "lat": -64.42076306223814, "lon": -152.17605544728247, "alt_km": 789.4695261131847, "timestamp": "2025-12-07T14:37:05.493354+00:00", "meta": {"OBJECT_NAME": "FENGYUN 1C DEB", "OBJECT_ID": "1999-025EBS", "EPOCH": "2025-12-06T15:23:03.269184", "MEAN_MOTION": 14.14507347, "ECCENTRICITY": 0.00866221, "INCLINATION": 99.1438, "RA_OF_ASC_NODE": 46.4951, "ARG_OF_PERICENTER": 258.6246, "MEAN_ANOMALY": 100.5185, "EPHEMERIS_TYPE": 0, "CLASSIFICATION_TYPE": "U", "NORAD_CAT_ID": 36986, "ELEMENT_SET_NO": 999, "REV_AT_EPOCH": 81658, "BSTAR": 0.0034114454, "MEAN_MOTION_DOT": 6.741e-05, "MEAN_MOTION_DDOT": 0}, "tle": {"line1": "1 36986U 99025EBS 25340.64101006  .00006741  00000+0  34114-2 0  9991", "line2": "2 36986  99.1438  46.4951 0086622 258.6246 100.5185 14.14507347816588"}}, "geometry": {"type": "Point", "coordinates": [-152.17605544728247, -64.42076306223814]}}, {"type": "Feature", "properties": {"norad_id": 36987, "name": "FENGYUN 1C DEB", "group": "fengyun-1c-debris", "lat": -24.437744964148305, "lon": -133.04230735446444, "alt_km": 1059.7121195104955, "timestamp": "2025-12-07T14:37:05.493364+00:00", "meta": {"OBJECT_NAME": "FENGYUN 1C DEB", "OBJECT_ID": "1999-025EBT", "EPOCH": "2025-12-05T21:42:17.790912", "MEAN_MOTION": 13.45857904, "ECCENTRICITY": 0.03195777, "INCLINATION": 100.8196, "RA_OF_ASC_NODE": 220.1336, "ARG_OF_PERICENTER": 63.0695, "MEAN_ANOMALY": 300.2705, "EPHEMERIS_TYPE": 0, "CLASSIFICATION_TYPE": "U", "NORAD_CAT_ID": 36987, "ELEMENT_SET_NO": 999, "REV_AT_EPOCH": 60785, "BSTAR": 0.0017726292, "MEAN_MOTION_DOT": 1.39e-05, "MEAN_MOTION_DDOT": 0}, "tle": {"line1": "1 36987U 99025EBT 25339.90437258  .00001390  00000+0  17726-2 0  9995", "line2": "2 36987 100.8196 220.1336 0319577  63.0695 300.2705 13.45857904607857"}}, "geometry": {"type": "Point", "coordinates": [-133.04230735446444, -24.437744964148305]}}, {"type": "Feature", "properties": {"norad_id": 36990, "name": "FENGYUN 1C DEB", "group": "fengyun-1c-debris", "lat": -33.637109494655554, "lon": -63.78066639792214, "alt_km": 976.5661771686127, "timestamp": "2025-12-07T14:37:05.493374+00:00", "meta": {"OBJECT_NAME": "FENGYUN 1C DEB", "OBJECT_ID": "1999-025EBW", "EPOCH": "2025-12-05T02:36:38.289600", "MEAN_MOTION": 13.56914719, "ECCENTRICITY": 0.0292772, "INCLINATION": 96.5839, "RA_OF_ASC_NODE": 290.134, "ARG_OF_PERICENTER": 44.0413, "MEAN_ANOMALY": 318.3658, "EPHEMERIS_TYPE": 0, "CLASSIFICATION_TYPE": "U", "NORAD_CAT_ID": 36990, "ELEMENT_SET_NO": 999, "REV_AT_EPOCH": 82784, "BSTAR": 0.0013157618, "MEAN_MOTION_DOT": 1.212e-05, "MEAN_MOTION_DDOT": 0}, "tle": {"line1": "1 36990U 99025EBW 25339.10877650  .00001212  00000+0  13158-2 0  9993", "line2": "2 36990  96.5839 290.1340 0292772  44.0413 318.3658 13.56914719827842"}}, "geometry": {"type": "Point", "coordinates": [-63.78066639792214, -33.637109494655554]}}, {"type": "Feature", "properties": {"norad_id": 36994, "name": "FENGYUN 1C DEB", "group": "fengyun-1c-debris", "lat": -43.022236587459474, "lon": 116.05772850010854, "alt_km": 922.5498129295811, "timestamp": "2025-12-07T14:37:05.493385+00:00", "meta": {"OBJECT_NAME": "FENGYUN 1C DEB", "OBJECT_ID": "1999-025ECA", "EPOCH": "2025-12-05T02:49:53.555808", "MEAN_MOTION": 13.90781204, "ECCENTRICITY": 0.01148937, "INCLINATION": 98.6422, "RA_OF_ASC_NODE": 301.8993, "ARG_OF_PERICENTER": 314.265, "MEAN_ANOMALY": 44.9126, "EPHEMERIS_TYPE": 0, "CLASSIFICATION_TYPE": "U", "NORAD_CAT_ID": 36994, "ELEMENT_SET_NO": 999, "REV_AT_EPOCH": 80801, "BSTAR": 0.00032032166, "MEAN_MOTION_DOT": 3.81e-06, "MEAN_MOTION_DDOT": 0}, "tle": {"line1": "1 36994U 99025ECA 25339.11798097  .00000381  00000+0  32032-3 0  9994", "line2": "2 36994  98.6422 301.8993 0114893 314.2650  44.9126 13.90781204808012"}}, "geometry": {"type": "Point", "coordinates": [116.05772850010854, -43.022236587459474]}}, {"type": "Feature", "properties": {"norad_id": 36995, "name": "FENGYUN 1C DEB", "group": "fengyun-1c-debris", "lat": -48.57912559068809, "lon": 31.150080002744296, "alt_km": 887.143289717832, "timestamp": "2025-12-07T14:37:05.493395+00:00", "meta": {"OBJECT_NAME": "FENGYUN 1C DEB", "OBJECT_ID": "1999-025ECB", "EPOCH": "2025-12-05T22:12:47.910528", "MEAN_MOTION": 14.04866199, "ECCENTRICITY": 0.00388963, "INCLINATION": 98.3438, "RA_OF_ASC_NODE": 219.1768, "ARG_OF_PERICENTER": 330.987, "MEAN_ANOMALY": 28.9138, "EPHEMERIS_TYPE": 0, "CLASSIFICATION_TYPE": "U", "NORAD_CAT_ID": 36995, "ELEMENT_SET_NO": 999, "REV_AT_EPOCH": 63461, "BSTAR": 3.0259787e-05, "MEAN_MOTION_DOT": 1e-07, "MEAN_MOTION_DDOT": 0}, "tle": {"line1": "1 36995U 99025ECB 25339.92555452  .00000010  00000+0  30260-4 0  9991", "line2": "2 36995  98.3438 219.1768 0038896 330.9870  28.9138 14.04866199634616"}}, "geometry": {"type": "Point", "coordinates": [31.150080002744296, -48.57912559068809]}}, {"type": "Feature", "properties": {"norad_id": 36996, "name": "FENGYUN 1C DEB", "group": "fengyun-1c-debris", "lat": -33.89661817308381, "lon": -51.314973645477146, "alt_km": 1018.6778899268529, "timestamp": "2025-12-07T14:37:05.493406+00:00", "meta": {"OBJECT_NAME": "FENGYUN 1C DEB", "OBJECT_ID": "1999-025ECC", "EPOCH": "2025-11-27T05:46:51.154176", "MEAN_MOTION": 14.11461211, "ECCENTRICITY": 0.02552856, "INCLINATION": 98.2247, "RA_OF_ASC_NODE": 124.7451, "ARG_OF_PERICENTER": 33.8599, "MEAN_ANOMALY": 87.2847, "EPHEMERIS_TYPE": 0, "CLASSIFICATION_TYPE": "U", "NORAD_CAT_ID": 36996, "ELEMENT_SET_NO": 999, "REV_AT_EPOCH": 59473, "BSTAR": 0.00085126792, "MEAN_MOTION_DOT": 2.056e-05, "MEAN_MOTION_DDOT": 0}, "tle": {"line1": "1 36996U 99025ECC 25331.24086984  .00002056  00000+0  85127-3 0  9991", "line2": "2 36996  98.2247 124.7451 0255285  33.8599  87.2847 14.11461211594731"}}, "geometry": {"type": "Point", "coordinates": [-51.314973645477146, -33.89661817308381]}}, {"type": "Feature", "properties": {"norad_id": 37003, "name": "FENGYUN 1C DEB", "group": "fengyun-1c-debris", "lat": -9.547181788726729, "lon": -176.0720489443631, "alt_km": 842.4630510973338, "timestamp": "2025-12-07T14:37:05.493417+00:00", "meta": {"OBJECT_NAME": "FENGYUN 1C DEB", "OBJECT_ID": "1999-025ECK", "EPOCH": "2025-12-05T21:02:12.179040", "MEAN_MOTION": 13.96201214, "ECCENTRICITY": 0.00966508, "INCLINATION": 98.8459, "RA_OF_ASC_NODE": 3.764, "ARG_OF_PERICENTER": 180.8948, "MEAN_ANOMALY": 304.7411, "EPHEMERIS_TYPE": 0, "CLASSIFICATION_TYPE": "U", "NORAD_CAT_ID": 37003, "ELEMENT_SET_NO": 999, "REV_AT_EPOCH": 60561, "BSTAR": 0.0011542513, "MEAN_MOTION_DOT": 1.609e-05, "MEAN_MOTION_DDOT": 0}, "tle": {"line1": "1 37003U 99025ECK 25339.87652985  .00001609  00000+0  11543-2 0  9991", "line2": "2 37003  98.8459   3.7640 0096650 180.8948 304.7411 13.96201214605619"}}, "geometry": {"type": "Point", "coordinates": [-176.0720489443631, -9.547181788726729]}}]}